{"type": "FeatureCollection", "features": [{"type": "Feature", "properties": {"norad_id": 26766, "name": "INTELSAT 10 (IS-10)", "group": "intelsat", "lat": 6.084266042509931, "lon": 105.55211127662966, "alt_km": 36156.330641230124, "timestamp": "2025-12-14T16:47:40.350450+00:00", "meta": {"OBJECT_NAME": "INTELSAT 10 (IS-10)", "OBJECT_ID": "2001-019A", "EPOCH": "2025-12-13T14:05:32.067744", "MEAN_MOTION": 0.99078362, "ECCENTRICITY": 0.00077388, "INCLINATION": 8.632, "RA_OF_ASC_NODE": 61.1493, "ARG_OF_PERICENTER": 225.9608, "MEAN_ANOMALY": 141.9213, "EPHEMERIS_TYPE": 0, "CLASSIFICATION_TYPE": "U", "NORAD_CAT_ID": 26766, "ELEMENT_SET_NO": 999, "REV_AT_EPOCH": 4374, "BSTAR": 0, "MEAN_MOTION_DOT": -2.69e-06, "MEAN_MOTION_DDOT": 0}, "tle": {"line1": "1 26766U 01019A   25347.58717671 -.00000269  00000+0  00000+0 0  9997", "line2": "2 26766   8.6320  61.1493 0007738 225.9608 141.9213  0.99078362 43742"}}, "geometry": {"type": "Point", "coordinates": [105.55211127662966, 6.084266042509931]}}, {"type": "Feature", "properties": {"norad_id": 26900, "name": "INTELSAT 902 (IS-902)", "group": "intelsat", "lat": -2.9599408463927075, "lon": -74.6705277956979, "alt_km": 35769.84893707394, "timestamp": "2025-12-14T16:47:40.350474+00:00", "meta": {"OBJECT_NAME": "INTELSAT 902 (IS-902)", "OBJECT_ID": "2001-039A", "EPOCH": "2025-12-11T04:42:42.842016", "MEAN_MOTION": 1.00272526, "ECCENTRICITY": 0.00044264, "INCLINATION": 5.6424, "RA_OF_ASC_NODE": 74.0881, "ARG_OF_PERICENTER": 184.9809, "MEAN_ANOMALY": 201.6699, "EPHEMERIS_TYPE": 0, "CLASSIFICATION_TYPE": "U", "NORAD_CAT_ID": 26900, "ELEMENT_SET_NO": 999, "REV_AT_EPOCH": 8881, "BSTAR": 0, "MEAN_MOTION_DOT": -2.78e-06, "MEAN_MOTION_DDOT": 0}, "tle": {"line1": "1 26900U 01039A   25345.19632919 -.00000278  00000+0  00000+0 0  9995", "line2": "2 26900   5.6424  74.0881 0004426 184.9809 201.6699  1.00272526 88816"}}, "geometry": {"type": "Point", "coordinates": [-74.6705277956979, -2.9599408463927075]}}, {"type": "Feature", "properties": {"norad_id": 27380, "name": "INTELSAT 904 (IS-904)", "group": "intelsat", "lat": -5.1436163424698735, "lon": -56.14430602607209, "alt_km": 35780.121494531515, "timestamp": "2025-12-14T16:47:40.350490+00:00", "meta": {"OBJECT_NAME": "INTELSAT 904 (IS-904)", "OBJECT_ID": "2002-007A", "EPOCH": "2025-12-13T15:00:41.787360", "MEAN_MOTION": 1.00272569, "ECCENTRICITY": 0.00015439, "INCLINATION": 6.457, "RA_OF_ASC_NODE": 71.4225, "ARG_OF_PERICENTER": 231.5446, "MEAN_ANOMALY": 333.2596, "EPHEMERIS_TYPE": 0, "CLASSIFICATION_TYPE": "U", "NORAD_CAT_ID": 27380, "ELEMENT_SET_NO": 999, "REV_AT_EPOCH": 4990, "BSTAR": 0, "MEAN_MOTION_DOT": -2.13e-06, "MEAN_MOTION_DDOT": 0}, "tle": {"line1": "1 27380U 02007A   25347.62548365 -.00000213  00000+0  00000+0 0  9994", "line2": "2 27380   6.4570  71.4225 0001543 231.5446 333.2596  1.00272569 49908"}}, "geometry": {"type": "Point", "coordinates": [-56.14430602607209, -5.1436163424698735]}}, {"type": "Feature", "properties": {"norad_id": 27426, "name": "DIRECTV 5 (TEMPO 1)", "group": "intelsat", "lat": 2.331317850198198, "lon": -134.54693218936973, "alt_km": 35776.363523745524, "timestamp": "2025-12-14T16:47:40.350504+00:00", "meta": {"OBJECT_NAME": "DIRECTV 5 (TEMPO 1)", "OBJECT_ID": "2002-023A", "EPOCH": "2025-12-13T21:28:59.403072", "MEAN_MOTION": 1.00272243, "ECCENTRICITY": 0.0003446, "INCLINATION": 4.4052, "RA_OF_ASC_NODE": 77.6401, "ARG_OF_PERICENTER": 198.3687, "MEAN_ANOMALY": 18.9363, "EPHEMERIS_TYPE": 0, "CLASSIFICATION_TYPE": "U", "NORAD_CAT_ID": 27426, "ELEMENT_SET_NO": 999, "REV_AT_EPOCH": 8626, "BSTAR": 0, "MEAN_MOTION_DOT": -4.2e-07, "MEAN_MOTION_DDOT": 0}, "tle": {"line1": "1 27426U 02023A   25347.89513198 -.00000042  00000+0  00000+0 0  9998", "line2": "2 27426   4.4052  77.6401 0003446 198.3687  18.9363  1.00272243 86265"}}, "geometry": {"type": "Point", "coordinates": [-134.54693218936973, 2.331317850198198]}}, {"type": "Feature", "properties": {"norad_id": 27438, "name": "INTELSAT 905 (IS-905)", "group": "intelsat", "lat": 5.056524456579763, "lon": -161.51395194002055, "alt_km": 35781.630110518614, "timestamp": "2025-12-14T16:47:40.350516+00:00", "meta": {"OBJECT_NAME": "INTELSAT 905 (IS-905)", "OBJECT_ID": "2002-027A", "EPOCH": "2025-12-13T10:28:18.325344", "MEAN_MOTION": 1.00273844, "ECCENTRICITY": 0.0002665, "INCLINATION": 6.2877, "RA_OF_ASC_NODE": 72.0486, "ARG_OF_PERICENTER": 200.4661, "MEAN_ANOMALY": 189.7386, "EPHEMERIS_TYPE": 0, "CLASSIFICATION_TYPE": "U", "NORAD_CAT_ID": 27438, "ELEMENT_SET_NO": 999, "REV_AT_EPOCH": 4950, "BSTAR": 0, "MEAN_MOTION_DOT": 1.06e-06, "MEAN_MOTION_DDOT": 0}, "tle": {"line1": "1 27438U 02027A   25347.43632321  .00000106  00000+0  00000+0 0  9995", "line2": "2 27438   6.2877  72.0486 0002665 200.4661 189.7386  1.00273844 49500"}}, "geometry": {"type": "Point", "coordinates": [-161.51395194002055, 5.056524456579763]}}, {"type": "Feature", "properties": {"norad_id": 27445, "name": "GALAXY 3C (G-3C)", "group": "intelsat", "lat": 1.0860633593902054, "lon": -119.29577857346442, "alt_km": 35784.8579972751, "timestamp": "2025-12-14T16:47:40.350529+00:00", "meta": {"OBJECT_NAME": "GALAXY 3C (G-3C)", "OBJECT_ID": "2002-030A", "EPOCH": "2025-12-13T21:33:28.971936", "MEAN_MOTION": 1.00271583, "ECCENTRICITY": 0.00010921, "INCLINATION": 3.2672, "RA_OF_ASC_NODE": 80.495, "ARG_OF_PERICENTER": 84.9997, "MEAN_ANOMALY": 145.8358, "EPHEMERIS_TYPE": 0, "CLASSIFICATION_TYPE": "U", "NORAD_CAT_ID": 27445, "ELEMENT_SET_NO": 999, "REV_AT_EPOCH": 4463, "BSTAR": 0, "MEAN_MOTION_DOT": -1.37e-06, "MEAN_MOTION_DDOT": 0}, "tle": {"line1": "1 27445U 02030A   25347.89825199 -.00000137  00000+0  00000+0 0  9999", "line2": "2 27445   3.2672  80.4950 0001092  84.9997 145.8358  1.00271583 44636"}}, "geometry": {"type": "Point", "coordinates": [-119.29577857346442, 1.0860633593902054]}}, {"type": "Feature", "properties": {"norad_id": 27513, "name": "INTELSAT 906 (IS-906)", "group": "intelsat", "lat": -3.0771079276204483, "lon": 39.825506952759525, "alt_km": 35803.69916966329, "timestamp": "2025-12-14T16:47:40.350541+00:00", "meta": {"OBJECT_NAME": "INTELSAT 906 (IS-906)", "OBJECT_ID": "2002-041A", "EPOCH": "2025-12-13T20:36:09.658368", "MEAN_MOTION": 1.00271703, "ECCENTRICITY": 0.00062076, "INCLINATION": 5.3318, "RA_OF_ASC_NODE": 75.2178, "ARG_OF_PERICENTER": 193.5774, "MEAN_ANOMALY": 187.1567, "EPHEMERIS_TYPE": 0, "CLASSIFICATION_TYPE": "U", "NORAD_CAT_ID": 27513, "ELEMENT_SET_NO": 999, "REV_AT_EPOCH": 8517, "BSTAR": 0, "MEAN_MOTION_DOT": 2.7e-07, "MEAN_MOTION_DDOT": 0}, "tle": {"line1": "1 27513U 02041A   25347.85844512  .00000027  00000+0  00000+0 0  9990", "line2": "2 27513   5.3318  75.2178 0006207 193.5774 187.1567  1.00271703 85178"}}, "geometry": {"type": "Point", "coordinates": [39.825506952759525, -3.0771079276204483]}}, {"type": "Feature", "properties": {"norad_id": 27954, "name": "GALAXY 13 (HORIZONS-1)", "group": "intelsat", "lat": 0.9178743407611986, "lon": -174.50073007444405, "alt_km": 35782.92558625379, "timestamp": "2025-12-14T16:47:40.350554+00:00", "meta": {"OBJECT_NAME": "GALAXY 13 (HORIZONS-1)", "OBJECT_ID": "2003-044A", "EPOCH": "2025-12-13T17:52:17.853312", "MEAN_MOTION": 1.0027199, "ECCENTRICITY": 0.00020627, "INCLINATION": 0.9383, "RA_OF_ASC_NODE": 86.4554, "ARG_OF_PERICENTER": 169.8894, "MEAN_ANOMALY": 304.3972, "EPHEMERIS_TYPE": 0, "CLASSIFICATION_TYPE": "U", "NORAD_CAT_ID": 27954, "ELEMENT_SET_NO": 999, "REV_AT_EPOCH": 4471, "BSTAR": 0, "MEAN_MOTION_DOT": 1.48e-06, "MEAN_MOTION_DDOT": 0}, "tle": {"line1": "1 27954U 03044A   25347.74465108  .00000148  00000+0  00000+0 0  9995", "line2": "2 27954   0.9383  86.4554 0002062 169.8894 304.3972  1.00271990 44712"}}, "geometry": {"type": "Point", "coordinates": [-174.50073007444405, 0.9178743407611986]}}, {"type": "Feature", "properties": {"norad_id": 28358, "name": "INTELSAT 10-02", "group": "intelsat", "lat": -0.01920502696409686, "lon": -25.43819946383735, "alt_km": 35782.01298689509, "timestamp": "2025-12-14T16:47:40.350565+00:00", "meta": {"OBJECT_NAME": "INTELSAT 10-02", "OBJECT_ID": "2004-022A", "EPOCH": "2025-12-13T22:31:38.836416", "MEAN_MOTION": 1.00270756, "ECCENTRICITY": 0.00011706, "INCLINATION": 0.0254, "RA_OF_ASC_NODE": 70.2348, "ARG_OF_PERICENTER": 235.9952, "MEAN_ANOMALY": 113.5812, "EPHEMERIS_TYPE": 0, "CLASSIFICATION_TYPE": "U", "NORAD_CAT_ID": 28358, "ELEMENT_SET_NO": 999, "REV_AT_EPOCH": 7869, "BSTAR": 0, "MEAN_MOTION_DOT": 6e-08, "MEAN_MOTION_DDOT": 0}, "tle": {"line1": "1 28358U 04022A   25347.93864394  .00000006  00000+0  00000+0 0  9995", "line2": "2 28358   0.0254  70.2348 0001170 235.9952 113.5812  1.00270756 78696"}}, "geometry": {"type": "Point", "coordinates": [-25.43819946383735, -0.01920502696409686]}}, {"type": "Feature", "properties": {"norad_id": 28626, "name": "XM-3 (RHYTHM)", "group": "intelsat", "lat": 0.018264502948474263, "lon": 80.5520687004908, "alt_km": 36159.77067904127, "timestamp": "2025-12-14T16:47:40.350578+00:00", "meta": {"OBJECT_NAME": "XM-3 (RHYTHM)", "OBJECT_ID": "2005-008A", "EPOCH": "2025-12-13T23:46:51.582720", "MEAN_MOTION": 0.98951927, "ECCENTRICITY": 0.00016206, "INCLINATION": 0.178, "RA_OF_ASC_NODE": 81.6517, "ARG_OF_PERICENTER": 273.1802, "MEAN_ANOMALY": 193.1786, "EPHEMERIS_TYPE": 0, "CLASSIFICATION_TYPE": "U", "NORAD_CAT_ID": 28626, "ELEMENT_SET_NO": 999, "REV_AT_EPOCH": 4076, "BSTAR": 0, "MEAN_MOTION_DOT": -1.07e-06, "MEAN_MOTION_DDOT": 0}, "tle": {"line1": "1 28626U 05008A   25347.99087480 -.00000107  00000+0  00000+0 0  9990", "line2": "2 28626   0.1780  81.6517 0001620 273.1802 193.1786  0.98951927 40764"}}, "geometry": {"type": "Point", "coordinates": [80.5520687004908, 0.018264502948474263]}}]}